{
    "links": {
        "self": "http://www.neowsapp.com/rest/v1/neo/54075544?api_key=iIulBulltgU6a56xZRHN4H3l9WmuAYTsLGpBGhQ2"
    },
    "id": "54075544",
    "neo_reference_id": "54075544",
    "name": "(2020 UX1)",
    "designation": "2020 UX1",
    "nasa_jpl_url": "http://ssd.jpl.nasa.gov/sbdb.cgi?sstr=54075544",
    "absolute_magnitude_h": 25.959,
    "estimated_diameter": {
        "kilometers": {
            "estimated_diameter_min": 0.0170905082,
            "estimated_diameter_max": 0.0382155381
        },
        "meters": {
            "estimated_diameter_min": 17.0905081842,
            "estimated_diameter_max": 38.2155380699
        },
        "miles": {
            "estimated_diameter_min": 0.0106195462,
            "estimated_diameter_max": 0.0237460271
        },
        "feet": {
            "estimated_diameter_min": 56.071222871,
            "estimated_diameter_max": 125.3790659212
        }
    },
    "is_potentially_hazardous_asteroid": false,
    "close_approach_data": [
        {
            "close_approach_date": "2020-10-28",
            "close_approach_date_full": "2020-Oct-28 21:40",
            "epoch_date_close_approach": 1603921200000,
            "relative_velocity": {
                "kilometers_per_second": "7.5178533446",
                "kilometers_per_hour": "27064.272040627",
                "miles_per_hour": "16816.6861465774"
            },
            "miss_distance": {
                "astronomical": "0.0643154509",
                "lunar": "25.0187104001",
                "kilometers": "9621454.462729583",
                "miles": "5978494.5766629254"
            },
            "orbiting_body": "Earth"
        }
    ],
    "orbital_data": {
        "orbit_id": "2",
        "orbit_determination_date": "2020-10-23 08:23:14",
        "first_observation_date": "2020-10-17",
        "last_observation_date": "2020-10-23",
        "data_arc_in_days": 6,
        "observations_used": 20,
        "orbit_uncertainty": "8",
        "minimum_orbit_intersection": ".0629453",
        "jupiter_tisserand_invariant": "3.426",
        "epoch_osculation": "2459140.5",
        "eccentricity": ".5344136948557745",
        "semi_major_axis": "2.234622472492576",
        "inclination": "7.707709762252201",
        "ascending_node_longitude": "201.1450254833763",
        "orbital_period": "1220.125966431917",
        "perihelion_distance": "1.040409620360072",
        "perihelion_argument": "205.2893550400659",
        "aphelion_distance": "3.428835324625079",
        "perihelion_time": "2459161.229436220191",
        "mean_anomaly": "353.8837486910535",
        "mean_motion": ".2950515027991482",
        "equinox": "J2000",
        "orbit_class": {
            "orbit_class_type": "AMO",
            "orbit_class_description": "Near-Earth asteroid orbits similar to that of 1221 Amor",
            "orbit_class_range": "1.017 AU < q (perihelion) < 1.3 AU"
        }
    },
    "is_sentry_object": false
}